[Satellite]
VERSION=1.1
NAME=FLOCK 2E'-1
NICKNAME=FLOCK 2E'-1
TLE1=1 41479U 98067HZ  17186.29725793  .00015544  00000-0  13303-3 0  9994
TLE2=2 41479  51.6353 283.9297 0001628 321.7571  38.3310 15.69653005 64708
